CCSDS_OMM_VERS = 2.0
CREATION_DATE  = 
ORIGINATOR     = 

OBJECT_NAME    = KNACKSAT-2
OBJECT_ID      = 1998-067XZ
CENTER_NAME    = EARTH
REF_FRAME      = TEME
TIME_SYSTEM    = UTC
MEAN_ELEMENT_THEORY = SGP/SGP4

EPOCH          = 2026-03-17T13:58:34.696128
MEAN_MOTION    = 15.52493782
ECCENTRICITY   = .00096302
INCLINATION    = 51.6316
RA_OF_ASC_NODE = 32.6116
ARG_OF_PERICENTER = 213.6705
MEAN_ANOMALY   = 146.3674

EPHEMERIS_TYPE = 0
CLASSIFICATION_TYPE = U
NORAD_CAT_ID   = 67683
ELEMENT_SET_NO = 999
REV_AT_EPOCH   = 601
BSTAR          = .4917303E-3
MEAN_MOTION_DOT = .30375E-3
MEAN_MOTION_DDOT = 0

CCSDS_OMM_VERS = 2.0
CREATION_DATE  = 
ORIGINATOR     = 

OBJECT_NAME    = GXIBA-1
OBJECT_ID      = 1998-067YA
CENTER_NAME    = EARTH
REF_FRAME      = TEME
TIME_SYSTEM    = UTC
MEAN_ELEMENT_THEORY = SGP/SGP4

EPOCH          = 2026-03-17T14:31:06.686400
MEAN_MOTION    = 15.55654197
ECCENTRICITY   = .0011784
INCLINATION    = 51.6311
RA_OF_ASC_NODE = 32.0138
ARG_OF_PERICENTER = 203.5326
MEAN_ANOMALY   = 156.5127

EPHEMERIS_TYPE = 0
CLASSIFICATION_TYPE = U
NORAD_CAT_ID   = 67684
ELEMENT_SET_NO = 999
REV_AT_EPOCH   = 602
BSTAR          = .92579658E-3
MEAN_MOTION_DOT = .65038E-3
MEAN_MOTION_DDOT = 0

CCSDS_OMM_VERS = 2.0
CREATION_DATE  = 
ORIGINATOR     = 

OBJECT_NAME    = CORAL
OBJECT_ID      = 1998-067YB
CENTER_NAME    = EARTH
REF_FRAME      = TEME
TIME_SYSTEM    = UTC
MEAN_ELEMENT_THEORY = SGP/SGP4

EPOCH          = 2026-03-17T03:00:35.140608
MEAN_MOTION    = 15.52891550
ECCENTRICITY   = .0011539
INCLINATION    = 51.6322
RA_OF_ASC_NODE = 34.8103
ARG_OF_PERICENTER = 208.7599
MEAN_ANOMALY   = 151.2756

EPHEMERIS_TYPE = 0
CLASSIFICATION_TYPE = U
NORAD_CAT_ID   = 67685
ELEMENT_SET_NO = 999
REV_AT_EPOCH   = 594
BSTAR          = .53452E-3
MEAN_MOTION_DOT = .33584E-3
MEAN_MOTION_DDOT = 0

CCSDS_OMM_VERS = 2.0
CREATION_DATE  = 
ORIGINATOR     = 

OBJECT_NAME    = ISS OBJECT YC
OBJECT_ID      = 1998-067YC
CENTER_NAME    = EARTH
REF_FRAME      = TEME
TIME_SYSTEM    = UTC
MEAN_ELEMENT_THEORY = SGP/SGP4

EPOCH          = 2026-03-17T04:21:00.401760
MEAN_MOTION    = 15.53596478
ECCENTRICITY   = .0008506
INCLINATION    = 51.6318
RA_OF_ASC_NODE = 34.4356
ARG_OF_PERICENTER = 178.1520
MEAN_ANOMALY   = 181.9503

EPHEMERIS_TYPE = 0
CLASSIFICATION_TYPE = U
NORAD_CAT_ID   = 67686
ELEMENT_SET_NO = 999
REV_AT_EPOCH   = 595
BSTAR          = .65715727E-3
MEAN_MOTION_DOT = .42474E-3
MEAN_MOTION_DDOT = 0

CCSDS_OMM_VERS = 2.0
CREATION_DATE  = 
ORIGINATOR     = 

OBJECT_NAME    = LEOPARD
OBJECT_ID      = 1998-067YD
CENTER_NAME    = EARTH
REF_FRAME      = TEME
TIME_SYSTEM    = UTC
MEAN_ELEMENT_THEORY = SGP/SGP4

EPOCH          = 2026-03-17T13:53:48.137568
MEAN_MOTION    = 15.52697233
ECCENTRICITY   = .00081774
INCLINATION    = 51.6320
RA_OF_ASC_NODE = 32.5916
ARG_OF_PERICENTER = 183.1017
MEAN_ANOMALY   = 176.9924

EPHEMERIS_TYPE = 0
CLASSIFICATION_TYPE = U
NORAD_CAT_ID   = 67687
ELEMENT_SET_NO = 999
REV_AT_EPOCH   = 593
BSTAR          = .50833886E-3
MEAN_MOTION_DOT = .31639E-3
MEAN_MOTION_DDOT = 0

CCSDS_OMM_VERS = 2.0
CREATION_DATE  = 
ORIGINATOR     = 

OBJECT_NAME    = ISS OBJECT YE
OBJECT_ID      = 1998-067YE
CENTER_NAME    = EARTH
REF_FRAME      = TEME
TIME_SYSTEM    = UTC
MEAN_ELEMENT_THEORY = SGP/SGP4

EPOCH          = 2026-03-17T04:26:35.359872
MEAN_MOTION    = 15.53273796
ECCENTRICITY   = .00082543
INCLINATION    = 51.6319
RA_OF_ASC_NODE = 34.4615
ARG_OF_PERICENTER = 178.8227
MEAN_ANOMALY   = 181.2784

EPHEMERIS_TYPE = 0
CLASSIFICATION_TYPE = U
NORAD_CAT_ID   = 67688
ELEMENT_SET_NO = 999
REV_AT_EPOCH   = 587
BSTAR          = .6148397E-3
MEAN_MOTION_DOT = .39222E-3
MEAN_MOTION_DDOT = 0

CCSDS_OMM_VERS = 2.0
CREATION_DATE  = 
ORIGINATOR     = 

OBJECT_NAME    = CREW DRAGON 12
OBJECT_ID      = 2026-031A
CENTER_NAME    = EARTH
REF_FRAME      = TEME
TIME_SYSTEM    = UTC
MEAN_ELEMENT_THEORY = SGP/SGP4

EPOCH          = 2026-03-17T09:17:12.433344
MEAN_MOTION    = 15.48344038
ECCENTRICITY   = .00062325
INCLINATION    = 51.6338
RA_OF_ASC_NODE = 34.3055
ARG_OF_PERICENTER = 201.4845
MEAN_ANOMALY   = 158.5882

EPHEMERIS_TYPE = 0
CLASSIFICATION_TYPE = U
NORAD_CAT_ID   = 67796
ELEMENT_SET_NO = 999
REV_AT_EPOCH   = 55744
BSTAR          = .24295645E-3
MEAN_MOTION_DOT = .12661E-3
MEAN_MOTION_DDOT = 0

